{
  "type": "FeatureCollection",
  "features": [
    {
      "type": "Feature",
      "properties": {
        "norad_id": 66543,
        "name": "STARLINK-35315",
        "group": "last-30-days",
        "lat": 8.31505584880943,
        "lon": -80.03742849667795,
        "alt_km": 343.2744958931862,
        "timestamp": "2025-12-03T10:52:56.222652+00:00",
        "meta_object_name": "STARLINK-35315",
        "meta_object_id": "2025-265AD",
        "meta_epoch": "2025-12-03T04:00:01.998720",
        "meta_mean_motion": 15.7507435,
        "meta_eccentricity": 0.0001509,
        "meta_inclination": 43.0001,
        "meta_ra_of_asc_node": 110.7264,
        "meta_arg_of_pericenter": 265.2125,
        "meta_mean_anomaly": 74.6106,
        "meta_ephemeris_type": 0,
        "meta_classification_type": "U",
        "meta_norad_cat_id": 66543,
        "meta_element_set_no": 999,
        "meta_rev_at_epoch": 334,
        "meta_bstar": -0.00026001,
        "meta_mean_motion_dot": -0.00040289,
        "meta_mean_motion_ddot": 0,
        "tle_line1": "1 66543U 25265AD  25337.16668980 -.00040289  00000+0 -26001-3 0  9994",
        "tle_line2": "2 66543  43.0001 110.7264 0001509 265.2125  74.6106 15.75074350  3344"
      },
      "geometry": {
        "type": "Point",
        "coordinates": [
          -80.03742849667795,
          8.31505584880943
        ]
      }
    },
    {
      "type": "Feature",
      "properties": {
        "norad_id": 66544,
        "name": "STARLINK-35728",
        "group": "last-30-days",
        "lat": 7.022097049992033,
        "lon": -78.61427178435196,
        "alt_km": 343.3541671915691,
        "timestamp": "2025-12-03T10:52:56.222662+00:00",
        "meta_object_name": "STARLINK-35728",
        "meta_object_id": "2025-265AE",
        "meta_epoch": "2025-12-03T04:00:01.998720",
        "meta_mean_motion": 15.75057829,
        "meta_eccentricity": 0.0001766,
        "meta_inclination": 43,
        "meta_ra_of_asc_node": 110.7218,
        "meta_arg_of_pericenter": 262.5084,
        "meta_mean_anomaly": 79.2351,
        "meta_ephemeris_type": 0,
        "meta_classification_type": "U",
        "meta_norad_cat_id": 66544,
        "meta_element_set_no": 999,
        "meta_rev_at_epoch": 345,
        "meta_bstar": 8.5855e-05,
        "meta_mean_motion_dot": 0.00012741,
        "meta_mean_motion_ddot": 0,
        "tle_line1": "1 66544U 25265AE  25337.16668980  .00012741  00000+0  85855-4 0  9998",
        "tle_line2": "2 66544  43.0000 110.7218 0001766 262.5084  79.2351 15.75057829  3459"
      },
      "geometry": {
        "type": "Point",
        "coordinates": [
          -78.61427178435196,
          7.022097049992033
        ]
      }
    },
    {
      "type": "Feature",
      "properties": {
        "norad_id": 66545,
        "name": "SHIJIAN-30A",
        "group": "last-30-days",
        "lat": -23.13091750144185,
        "lon": -3.2958909060284007,
        "alt_km": 514.3989550143733,
        "timestamp": "2025-12-03T10:52:56.222672+00:00",
        "meta_object_name": "SHIJIAN-30A",
        "meta_object_id": "2025-266A",
        "meta_epoch": "2025-12-03T03:05:59.489664",
        "meta_mean_motion": 15.1532722,
        "meta_eccentricity": 0.0012774,
        "meta_inclination": 51.7996,
        "meta_ra_of_asc_node": 17.8804,
        "meta_arg_of_pericenter": 322.212,
        "meta_mean_anomaly": 37.7958,
        "meta_ephemeris_type": 0,
        "meta_classification_type": "U",
        "meta_norad_cat_id": 66545,
        "meta_element_set_no": 999,
        "meta_rev_at_epoch": 212,
        "meta_bstar": 0.00082878,
        "meta_mean_motion_dot": 0.00015569,
        "meta_mean_motion_ddot": 0,
        "tle_line1": "1 66545U 25266A   25337.12916076  .00015569  00000+0  82878-3 0  9990",
        "tle_line2": "2 66545  51.7996  17.8804 0012774 322.2120  37.7958 15.15327220  2128"
      },
      "geometry": {
        "type": "Point",
        "coordinates": [
          -3.2958909060284007,
          -23.13091750144185
        ]
      }
    },
    {
      "type": "Feature",
      "properties": {
        "norad_id": 66546,
        "name": "SHIJIAN-30B",
        "group": "last-30-days",
        "lat": -27.065352798592052,
        "lon": -7.357707198787816,
        "alt_km": 516.0534776421191,
        "timestamp": "2025-12-03T10:52:56.222682+00:00",
        "meta_object_name": "SHIJIAN-30B",
        "meta_object_id": "2025-266B",
        "meta_epoch": "2025-12-03T03:07:26.038272",
        "meta_mean_motion": 15.15387893,
        "meta_eccentricity": 0.0010448,
        "meta_inclination": 51.7979,
        "meta_ra_of_asc_node": 17.8851,
        "meta_arg_of_pericenter": 325.2051,
        "meta_mean_anomaly": 34.8241,
        "meta_ephemeris_type": 0,
        "meta_classification_type": "U",
        "meta_norad_cat_id": 66546,
        "meta_element_set_no": 999,
        "meta_rev_at_epoch": 212,
        "meta_bstar": 0.00094958,
        "meta_mean_motion_dot": 0.0001791,
        "meta_mean_motion_ddot": 0,
        "tle_line1": "1 66546U 25266B   25337.13016248  .00017910  00000+0  94958-3 0  9998",
        "tle_line2": "2 66546  51.7979  17.8851 0010448 325.2051  34.8241 15.15387893  2129"
      },
      "geometry": {
        "type": "Point",
        "coordinates": [
          -7.357707198787816,
          -27.065352798592052
        ]
      }
    },
    {
      "type": "Feature",
      "properties": {
        "norad_id": 66547,
        "name": "SHIJIAN-30C",
        "group": "last-30-days",
        "lat": -29.986803802662568,
        "lon": -10.64804598270584,
        "alt_km": 515.5281672406945,
        "timestamp": "2025-12-03T10:52:56.222692+00:00",
        "meta_object_name": "SHIJIAN-30C",
        "meta_object_id": "2025-266C",
        "meta_epoch": "2025-12-03T03:08:31.742016",
        "meta_mean_motion": 15.15426154,
        "meta_eccentricity": 0.0011339,
        "meta_inclination": 51.799,
        "meta_ra_of_asc_node": 17.8907,
        "meta_arg_of_pericenter": 317.4145,
        "meta_mean_anomaly": 42.5951,
        "meta_ephemeris_type": 0,
        "meta_classification_type": "U",
        "meta_norad_cat_id": 66547,
        "meta_element_set_no": 999,
        "meta_rev_at_epoch": 212,
        "meta_bstar": 0.00083734,
        "meta_mean_motion_dot": 0.00015772,
        "meta_mean_motion_ddot": 0,
        "tle_line1": "1 66547U 25266C   25337.13092294  .00015772  00000+0  83734-3 0  9998",
        "tle_line2": "2 66547  51.7990  17.8907 0011339 317.4145  42.5951 15.15426154  2120"
      },
      "geometry": {
        "type": "Point",
        "coordinates": [
          -10.64804598270584,
          -29.986803802662568
        ]
      }
    },
    {
      "type": "Feature",
      "properties": {
        "norad_id": 66548,
        "name": "CZ-2C R/B",
        "group": "last-30-days",
        "lat": -16.551225955143984,
        "lon": 2.103290453732652,
        "alt_km": 534.289510362737,
        "timestamp": "2025-12-03T10:52:56.222707+00:00",
        "meta_object_name": "CZ-2C R/B",
        "meta_object_id": "2025-266D",
        "meta_epoch": "2025-12-03T03:08:13.108128",
        "meta_mean_motion": 15.29842815,
        "meta_eccentricity": 0.008478,
        "meta_inclination": 52.0551,
        "meta_ra_of_asc_node": 17.049,
        "meta_arg_of_pericenter": 140.375,
        "meta_mean_anomaly": 220.3473,
        "meta_ephemeris_type": 0,
        "meta_classification_type": "U",
        "meta_norad_cat_id": 66548,
        "meta_element_set_no": 999,
        "meta_rev_at_epoch": 214,
        "meta_bstar": 0.00050518,
        "meta_mean_motion_dot": 0.00016162,
        "meta_mean_motion_ddot": 0,
        "tle_line1": "1 66548U 25266D   25337.13070727  .00016162  00000+0  50518-3 0  9994",
        "tle_line2": "2 66548  52.0551  17.0490 0084780 140.3750 220.3473 15.29842815  2140"
      },
      "geometry": {
        "type": "Point",
        "coordinates": [
          2.103290453732652,
          -16.551225955143984
        ]
      }
    },
    {
      "type": "Feature",
      "properties": {
        "norad_id": 66549,
        "name": "SHIJIAN-28",
        "group": "last-30-days",
        "lat": 3.811001607343928,
        "lon": -70.73732280669965,
        "alt_km": 32700.465623396154,
        "timestamp": "2025-12-03T10:52:56.222721+00:00",
        "meta_object_name": "SHIJIAN-28",
        "meta_object_id": "2025-277A",
        "meta_epoch": "2025-11-30T18:06:43.124256",
        "meta_mean_motion": 2.28019775,
        "meta_eccentricity": 0.7300519,
        "meta_inclination": 14.4344,
        "meta_ra_of_asc_node": 275.4056,
        "meta_arg_of_pericenter": 179.5026,
        "meta_mean_anomaly": 182.358,
        "meta_ephemeris_type": 0,
        "meta_classification_type": "U",
        "meta_norad_cat_id": 66549,
        "meta_element_set_no": 999,
        "meta_rev_at_epoch": 4,
        "meta_bstar": 0.00062085,
        "meta_mean_motion_dot": 6.315e-05,
        "meta_mean_motion_ddot": 0,
        "tle_line1": "1 66549U 25277A   25334.75466579  .00006315  00000+0  62085-3 0  9997",
        "tle_line2": "2 66549  14.4344 275.4056 7300519 179.5026 182.3580  2.28019775    48"
      },
      "geometry": {
        "type": "Point",
        "coordinates": [
          -70.73732280669965,
          3.811001607343928
        ]
      }
    }
  ]
}